start=new Date('2022-12-04T00:00:00.000Z').valueOf();
sats=[{"SEMIMAJOR_AXIS":"6917.879","CENTER_NAME":"EARTH","TIME_SYSTEM":"UTC","OBJECT_ID":"2022-049AJ","INCLINATION":"53.2183","RA_OF_ASC_NODE":"1.2286","MEAN_ELEMENT_THEORY":"SGP4","EPOCH":"2022-12-03T11:05:50.318880","OBJECT_TYPE":"PAYLOAD","MEAN_MOTION_DDOT":"0.0000000000000","MEAN_ANOMALY":"327.5819","ELEMENT_SET_NO":"999","EPHEMERIS_TYPE":"0","ARG_OF_PERICENTER":"32.5311","GP_ID":"219449423","SITE":"AFETR","NORAD_CAT_ID":"52483","TLE_LINE1":"1 52483U 22049AJ  22337.46238795 -.00000342  00000-0 -33494-5 0  9999","COUNTRY_CODE":"US","CLASSIFICATION_TYPE":"U","RCS_SIZE":"LARGE","DECAY_DATE":null,"ECCENTRICITY":"0.00022480","TLE_LINE2":"2 52483  53.2183   1.2286 0002248  32.5311 327.5819 15.08840605 33644","FILE":"3680253","BSTAR":"-0.00000334940000","LAUNCH_DATE":"2022-05-06","APOAPSIS":"541.299","REV_AT_EPOCH":"3364","PERIAPSIS":"538.188","MEAN_MOTION_DOT":"-0.00000342","PERIOD":"95.438","REF_FRAME":"TEME","MEAN_MOTION":"15.08840605","OBJECT_NAME":"STARLINK-3875"},{"MEAN_ANOMALY":"332.8523","ELEMENT_SET_NO":"999","EPHEMERIS_TYPE":"0","ARG_OF_PERICENTER":"27.2611","CENTER_NAME":"EARTH","SEMIMAJOR_AXIS":"6917.882","INCLINATION":"53.2180","TIME_SYSTEM":"UTC","OBJECT_ID":"2022-049AK","RA_OF_ASC_NODE":"10.7715","MEAN_ELEMENT_THEORY":"SGP4","MEAN_MOTION_DDOT":"0.0000000000000","OBJECT_TYPE":"PAYLOAD","EPOCH":"2022-12-03T13:38:11.576256","PERIAPSIS":"537.866","MEAN_MOTION_DOT":"0.00001586","REF_FRAME":"TEME","PERIOD":"95.438","MEAN_MOTION":"15.08839337","OBJECT_NAME":"STARLINK-3887","GP_ID":"219479954","NORAD_CAT_ID":"52484","SITE":"AFETR","TLE_LINE1":"1 52484U 22049AK  22337.56818954  .00001586  00000-0  11774-3 0  9996","RCS_SIZE":"LARGE","CLASSIFICATION_TYPE":"U","COUNTRY_CODE":"US","FILE":"3680595","TLE_LINE2":"2 52484  53.2180  10.7715 0002720  27.2611 332.8523 15.08839337 32283","BSTAR":"0.00011774000000","LAUNCH_DATE":"2022-05-06","DECAY_DATE":null,"ECCENTRICITY":"0.00027200","REV_AT_EPOCH":"3228","APOAPSIS":"541.629"},{"PERIOD":"95.438","REF_FRAME":"TEME","MEAN_MOTION_DOT":"-0.00000505","PERIAPSIS":"538.246","OBJECT_NAME":"STARLINK-3913","MEAN_MOTION":"15.08837566","TLE_LINE1":"1 52485U 22049AL  22337.78622719 -.00000505  00000-0 -13643-4 0  9993","SITE":"AFETR","NORAD_CAT_ID":"52485","GP_ID":"219480700","APOAPSIS":"541.260","REV_AT_EPOCH":"3245","ECCENTRICITY":"0.00021780","DECAY_DATE":null,"LAUNCH_DATE":"2022-05-06","TLE_LINE2":"2 52485  53.2189 359.7798 0002178  34.2685 325.8447 15.08837566 32454","FILE":"3680595","BSTAR":"-0.00001364300000","COUNTRY_CODE":"US","CLASSIFICATION_TYPE":"U","RCS_SIZE":"LARGE","ELEMENT_SET_NO":"999","MEAN_ANOMALY":"325.8447","EPHEMERIS_TYPE":"0","ARG_OF_PERICENTER":"34.2685","RA_OF_ASC_NODE":"359.7798","OBJECT_ID":"2022-049AL","TIME_SYSTEM":"UTC","INCLINATION":"53.2189","CENTER_NAME":"EARTH","SEMIMAJOR_AXIS":"6917.888","OBJECT_TYPE":"PAYLOAD","EPOCH":"2022-12-03T18:52:10.029216","MEAN_MOTION_DDOT":"0.0000000000000","MEAN_ELEMENT_THEORY":"SGP4"},{"MEAN_MOTION_DOT":"-0.00001452","PERIAPSIS":"538.162","PERIOD":"95.439","REF_FRAME":"TEME","MEAN_MOTION":"15.08823524","OBJECT_NAME":"STARLINK-3918","GP_ID":"219456512","TLE_LINE1":"1 52486U 22049AM  22337.82579146 -.00001452  00000-0 -73183-4 0  9991","SITE":"AFETR","NORAD_CAT_ID":"52486","COUNTRY_CODE":"US","RCS_SIZE":"LARGE","CLASSIFICATION_TYPE":"U","APOAPSIS":"541.429","REV_AT_EPOCH":"3248","DECAY_DATE":null,"ECCENTRICITY":"0.00023610","FILE":"3680445","TLE_LINE2":"2 52486  53.2198   9.6112 0002361  27.3862 332.7254 15.08823524 32485","LAUNCH_DATE":"2022-05-06","BSTAR":"-0.00007318300000","MEAN_ANOMALY":"332.7254","ELEMENT_SET_NO":"999","EPHEMERIS_TYPE":"0","ARG_OF_PERICENTER":"27.3862","CENTER_NAME":"EARTH","SEMIMAJOR_AXIS":"6917.931","RA_OF_ASC_NODE":"9.6112","OBJECT_ID":"2022-049AM","TIME_SYSTEM":"UTC","INCLINATION":"53.2198","MEAN_ELEMENT_THEORY":"SGP4","EPOCH":"2022-12-03T19:49:08.382144","OBJECT_TYPE":"PAYLOAD","MEAN_MOTION_DDOT":"0.0000000000000"},{"OBJECT_NAME":"STARLINK-3902","MEAN_MOTION":"15.08840947","REF_FRAME":"TEME","PERIOD":"95.437","MEAN_MOTION_DOT":"0.00000021","PERIAPSIS":"538.102","REV_AT_EPOCH":"3256","APOAPSIS":"541.383","TLE_LINE2":"2 52487  53.2181   1.2566 0002372  32.5618 327.5520 15.08840947 32563","BSTAR":"0.00001945900000","FILE":"3680194","LAUNCH_DATE":"2022-05-06","DECAY_DATE":null,"ECCENTRICITY":"0.00023720","RCS_SIZE":"LARGE","CLASSIFICATION_TYPE":"U","COUNTRY_CODE":"US","TLE_LINE1":"1 52487U 22049AN  22337.45598334  .00000021  00000-0  19459-4 0  9996","NORAD_CAT_ID":"52487","SITE":"AFETR","GP_ID":"219424656","EPHEMERIS_TYPE":"0","ARG_OF_PERICENTER":"32.5618","ELEMENT_SET_NO":"999","MEAN_ANOMALY":"327.5520","MEAN_MOTION_DDOT":"0.0000000000000","EPOCH":"2022-12-03T10:56:36.960576","OBJECT_TYPE":"PAYLOAD","MEAN_ELEMENT_THEORY":"SGP4","RA_OF_ASC_NODE":"1.2566","INCLINATION":"53.2181","TIME_SYSTEM":"UTC","OBJECT_ID":"2022-049AN","CENTER_NAME":"EARTH","SEMIMAJOR_AXIS":"6917.877"},{"MEAN_MOTION":"15.08833708","OBJECT_NAME":"STARLINK-3892","MEAN_MOTION_DOT":"0.00001817","PERIAPSIS":"537.963","REF_FRAME":"TEME","PERIOD":"95.438","CLASSIFICATION_TYPE":"U","RCS_SIZE":"LARGE","COUNTRY_CODE":"US","APOAPSIS":"541.567","REV_AT_EPOCH":"3247","FILE":"3680446","TLE_LINE2":"2 52488  53.2182   9.9299 0002605  29.1577 330.9560 15.08833708 32477","BSTAR":"0.00013230000000","LAUNCH_DATE":"2022-05-06","ECCENTRICITY":"0.00026050","DECAY_DATE":null,"GP_ID":"219456376","TLE_LINE1":"1 52488U 22049AP  22337.75586628  .00001817  00000-0  13230-3 0  9997","NORAD_CAT_ID":"52488","SITE":"AFETR","EPHEMERIS_TYPE":"0","ARG_OF_PERICENTER":"29.1577","MEAN_ANOMALY":"330.9560","ELEMENT_SET_NO":"999","MEAN_ELEMENT_THEORY":"SGP4","MEAN_MOTION_DDOT":"0.0000000000000","EPOCH":"2022-12-03T18:08:26.846592","OBJECT_TYPE":"PAYLOAD","CENTER_NAME":"EARTH","SEMIMAJOR_AXIS":"6917.900","RA_OF_ASC_NODE":"9.9299","INCLINATION":"53.2182","TIME_SYSTEM":"UTC","OBJECT_ID":"2022-049AP"},{"MEAN_MOTION_DOT":"-0.00001033","PERIAPSIS":"538.084","PERIOD":"95.438","REF_FRAME":"TEME","MEAN_MOTION":"15.08836863","OBJECT_NAME":"STARLINK-3923","GP_ID":"219480201","TLE_LINE1":"1 52489U 22049AQ  22337.82946788 -.00001033  00000-0 -46815-4 0  9991","SITE":"AFETR","NORAD_CAT_ID":"52489","COUNTRY_CODE":"US","RCS_SIZE":"LARGE","CLASSIFICATION_TYPE":"U","APOAPSIS":"541.426","REV_AT_EPOCH":"3232","ECCENTRICITY":"0.00024160","DECAY_DATE":null,"FILE":"3680595","TLE_LINE2":"2 52489  53.2173   9.6021 0002416  28.1899 331.9223 15.08836863 32320","BSTAR":"-0.00004681500000","LAUNCH_DATE":"2022-05-06","MEAN_ANOMALY":"331.9223","ELEMENT_SET_NO":"999","EPHEMERIS_TYPE":"0","ARG_OF_PERICENTER":"28.1899","CENTER_NAME":"EARTH","SEMIMAJOR_AXIS":"6917.890","RA_OF_ASC_NODE":"9.6021","TIME_SYSTEM":"UTC","OBJECT_ID":"2022-049AQ","INCLINATION":"53.2173","MEAN_ELEMENT_THEORY":"SGP4","EPOCH":"2022-12-03T19:54:26.024832","OBJECT_TYPE":"PAYLOAD","MEAN_MOTION_DDOT":"0.0000000000000"},{"REV_AT_EPOCH":"3245","APOAPSIS":"541.241","ECCENTRICITY":"0.00021180","DECAY_DATE":null,"FILE":"3680595","TLE_LINE2":"2 52490  53.2177 359.8610 0002118  35.6030 324.5103 15.08829910 32453","LAUNCH_DATE":"2022-05-06","BSTAR":"-0.00000207800000","COUNTRY_CODE":"US","RCS_SIZE":"LARGE","CLASSIFICATION_TYPE":"U","TLE_LINE1":"1 52490U 22049AR  22337.77151128 -.00000321  00000-0 -20780-5 0  9996","SITE":"AFETR","NORAD_CAT_ID":"52490","GP_ID":"219481456","OBJECT_NAME":"STARLINK-3914","MEAN_MOTION":"15.08829910","PERIOD":"95.438","REF_FRAME":"TEME","MEAN_MOTION_DOT":"-0.00000321","PERIAPSIS":"538.311","OBJECT_TYPE":"PAYLOAD","EPOCH":"2022-12-03T18:30:58.574592","MEAN_MOTION_DDOT":"0.0000000000000","MEAN_ELEMENT_THEORY":"SGP4","RA_OF_ASC_NODE":"359.8610","OBJECT_ID":"2022-049AR","TIME_SYSTEM":"UTC","INCLINATION":"53.2177","CENTER_NAME":"EARTH","SEMIMAJOR_AXIS":"6917.911","EPHEMERIS_TYPE":"0","ARG_OF_PERICENTER":"35.6030","ELEMENT_SET_NO":"999","MEAN_ANOMALY":"324.5103"},{"GP_ID":"219481701","SITE":"AFETR","NORAD_CAT_ID":"52491","TLE_LINE1":"1 52491U 22049AS  22337.77886718  .00001169  00000-0  91571-4 0  9991","COUNTRY_CODE":"US","RCS_SIZE":"MEDIUM","CLASSIFICATION_TYPE":"U","ECCENTRICITY":"0.00028080","DECAY_DATE":null,"TLE_LINE2":"2 52491  53.2203 359.8219 0002808  24.0817 336.0306 15.08839859 32456","FILE":"3680595","BSTAR":"0.00009157100000","LAUNCH_DATE":"2022-05-06","REV_AT_EPOCH":"3245","APOAPSIS":"541.688","PERIAPSIS":"537.803","MEAN_MOTION_DOT":"0.00001169","PERIOD":"95.438","REF_FRAME":"TEME","MEAN_MOTION":"15.08839859","OBJECT_NAME":"STARLINK-3908","SEMIMAJOR_AXIS":"6917.881","CENTER_NAME":"EARTH","TIME_SYSTEM":"UTC","OBJECT_ID":"2022-049AS","INCLINATION":"53.2203","RA_OF_ASC_NODE":"359.8219","MEAN_ELEMENT_THEORY":"SGP4","EPOCH":"2022-12-03T18:41:34.124352","OBJECT_TYPE":"PAYLOAD","MEAN_MOTION_DDOT":"0.0000000000000","MEAN_ANOMALY":"336.0306","ELEMENT_SET_NO":"999","EPHEMERIS_TYPE":"0","ARG_OF_PERICENTER":"24.0817"},{"ARG_OF_PERICENTER":"26.1811","EPHEMERIS_TYPE":"0","ELEMENT_SET_NO":"999","MEAN_ANOMALY":"333.9316","MEAN_MOTION_DDOT":"0.0000000000000","OBJECT_TYPE":"PAYLOAD","EPOCH":"2022-12-03T18:20:22.463232","MEAN_ELEMENT_THEORY":"SGP4","RA_OF_ASC_NODE":"359.8942","INCLINATION":"53.2183","OBJECT_ID":"2022-049AT","TIME_SYSTEM":"UTC","SEMIMAJOR_AXIS":"6917.900","CENTER_NAME":"EARTH","OBJECT_NAME":"STARLINK-3916","MEAN_MOTION":"15.08833556","REF_FRAME":"TEME","PERIOD":"95.438","MEAN_MOTION_DOT":"-0.00000552","PERIAPSIS":"537.913","REV_AT_EPOCH":"3245","APOAPSIS":"541.617","FILE":"3680595","TLE_LINE2":"2 52492  53.2183 359.8942 0002677  26.1811 333.9316 15.08833556 32453","LAUNCH_DATE":"2022-05-06","BSTAR":"-0.00001658700000","ECCENTRICITY":"0.00026770","DECAY_DATE":null,"RCS_SIZE":"LARGE","CLASSIFICATION_TYPE":"U","COUNTRY_CODE":"US","TLE_LINE1":"1 52492U 22049AT  22337.76414888 -.00000552  00000-0 -16587-4 0  9997","NORAD_CAT_ID":"52492","SITE":"AFETR","GP_ID":"219479955"}];
